CUTE-1 (CO-55)          
1 27844U 03031E   24025.59599732  .00000728  00000+0  34218-3 0  9991
2 27844  98.6788  34.6361 0009372 195.4340 164.6554 14.23052374 67367
CUBESAT XI-IV (CO-57)   
1 27848U 03031J   24024.98295470  .00000598  00000+0  28742-3 0  9999
2 27848  98.6821  34.3524 0009033 213.5737 146.4869 14.22523737 67039
CUBESAT XI-V            
1 28895U 05043F   24025.34693078  .00003360  00000+0  60989-3 0  9993
2 28895  98.1787 161.2749 0017072  91.4130 268.9030 14.66783935973367
CUTE-1.7+APD II (CO-65) 
1 32785U 08021C   24025.18059517  .00007287  00000+0  67592-3 0  9990
2 32785  97.7366 352.1115 0013513  86.6464 273.6302 14.94663788854028
AAUSAT-II               
1 32788U 08021F   24025.47503719  .00020220  00000+0  12264-2 0  9990
2 32788  97.5835   6.2069 0005132 334.4920  25.6056 15.10562704856583
SEEDS II (CO-66)        
1 32791U 08021J   24024.91148276  .00010648  00000+0  84974-3 0  9996
2 32791  97.6797 357.3944 0009474  49.3861 310.8186 15.00435340854941
SWISSCUBE               
1 35932U 09051B   24025.12161346  .00002286  00000+0  50275-3 0  9993
2 35932  98.4919 265.4520 0008334  48.5377 311.6536 14.58472690761555
BEESAT-1                
1 35933U 09051C   24025.65295369  .00001933  00000+0  42844-3 0  9996
2 35933  98.4848 267.0814 0006713  59.0026 301.1831 14.58287447761789
ITUPSAT1                
1 35935U 09051E   24025.56704646  .00001759  00000+0  39927-3 0  9995
2 35935  98.4947 266.8494 0009088  62.8067 297.4056 14.57285284761341
TISAT 1                 
1 36799U 10035E   24025.61593431  .00010683  00000+0  87291-3 0  9995
2 36799  98.1061 269.0272 0008000 333.0257  27.0548 14.99552704735524
M-CUBED & EXP-1 PRIME   
1 37855U 11061F   24025.20513838  .00058019  00000+0  10902-2 0  9996
2 37855 101.6888 120.6118 0081290  71.1629 289.8398 15.44763241670600
AEROCUBE 4.5A           
1 38767U 12048K   24025.49982796  .00009374  00000+0  58631-3 0  9991
2 38767  64.6624  54.3744 0103590  71.3753 289.8580 15.05523439238800
AEROCUBE 4.5B           
1 38768U 12048L   24025.51099855  .00025926  00000+0  12274-2 0  9993
2 38768  64.6635 348.7935 0082845  61.0870 299.8531 15.16246372239583
STRAND-1                
1 39090U 13009E   24025.45849319  .00000784  00000+0  28525-3 0  9993
2 39090  98.3802 217.6971 0008310 328.0496  32.0185 14.35864594571618
BRITE-AUSTRIA           
1 39091U 13009F   24025.48083564  .00000500  00000+0  18805-3 0  9995
2 39091  98.3837 216.9767 0009861 334.4927  25.5772 14.35665201571640
BEESAT-2                
1 39136U 13015G   24025.61214431  .01100424  64361-3  18729-2 0  9991
2 39136  64.8452 307.1568 0007981 222.2170 137.8384 16.02361126596770
NEE-01 PEGASO           
1 39151U 13018B   24025.83364996  .00004870  00000+0  58416-3 0  9998
2 39151  98.0224 141.8521 0016163 143.9383 216.2925 14.84421236580708
ESTCUBE 1               
1 39161U 13021C   24025.74999484  .00003436  00000+0  51206-3 0  9996
2 39161  97.8479  96.5711 0008549 341.5258  18.5640 14.75471220575979
POPACS 1                
1 39268U 13055D   24023.23641749  .00032829  00000+0  64295-3 0  9991
2 39268  80.9882 317.2617 0448790 197.9159 160.5794 14.81543416540328
POPACS 2                
1 39269U 13055E   24025.45780236  .00020516  00000+0  49282-3 0  9992
2 39269  81.0032  34.7509 0576044  39.7265 324.4666 14.50741250534711
POPACS 3                
1 39270U 13055F   24024.86755084  .00014645  00000+0  41192-3 0  9999
2 39270  81.0093  81.5391 0643702 170.9373 190.4133 14.33128984532962
ZACUBE-1 (TSHEPISOSAT)  
1 39417U 13066B   24025.43802709  .00007265  00000+0  79226-3 0  9994
2 39417  97.7166 345.0183 0050701 275.8495  83.6943 14.87296973550200
WNISAT-1                
1 39423U 13066H   24025.56696136  .00001411  00000+0  27845-3 0  9997
2 39423  97.6778 231.4946 0172528  99.9417 262.1303 14.54785203539766
TRITON-1                
1 39427U 13066M   24025.75436844  .00004141  00000+0  60226-3 0  9993
2 39427  97.8436 308.5217 0104807 182.7279 177.3371 14.72730919545282
DELFI-N3XT              
1 39428U 13066N   24025.36032688  .00006253  00000+0  84443-3 0  9992
2 39428  97.8404 307.7865 0104533 193.1673 166.6805 14.75652254544862
GOMX-1                  
1 39430U 13066Q   24025.75955297  .00004711  00000+0  79983-3 0  9998
2 39430  97.7538 268.7488 0142384 348.9642  10.8447 14.63129241542065
CUBEBUG-2 (LO-74)       
1 39440U 13066AA  24025.40751071  .00007124  00000+0  87284-3 0  9999
2 39440  97.7995 332.5152 0073262  24.8283 335.6426 14.81540635547031
NEE-02 KRYSAOR          
1 39441U 13066AB  24025.38620445  .00004847  00000+0  63219-3 0  9998
2 39441  97.8100 328.8432 0077244  44.0344 316.6985 14.78898015546678
FUNCUBE-1 (AO-73)       
1 39444U 13066AE  24025.44363814  .00008614  00000+0  88780-3 0  9998
2 39444  97.7024 347.8445 0048393 257.7701 101.8094 14.89600788548692
UWE-3                   
1 39446U 13066AG  24025.40602024  .00007716  00000+0  89625-3 0  9996
2 39446  97.7646 338.5827 0062020 333.0640  26.7359 14.84248798547364
BRITE-CA1 (TORONTO)     
1 40020U 14033L   24025.37693115  .00002992  00000+0  49436-3 0  9995
2 40020  97.8525 167.8369 0083843 190.4270 169.5201 14.68785400513751
DUCHIFAT-1              
1 40021U 14033M   24025.47440961  .00013125  00000+0  98386-3 0  9994
2 40021  98.0787   2.5848 0012645 219.7442 140.2856 15.02756268522515
NANOSATC-BR1            
1 40024U 14033Q   24025.46445608  .00011053  00000+0  89548-3 0  9997
2 40024  98.0621 352.1201 0007387 275.0114  85.0265 14.99873022521680
QB50P1                  
1 40025U 14033R   24025.43548651  .00009307  00000+0  81308-3 0  9992
2 40025  98.0261 341.9503 0008414 280.1123  79.9149 14.96994944521352
QB50P2                  
1 40032U 14033Y   24025.82709044  .00008336  00000+0  74832-3 0  9993
2 40032  97.9922 334.9368 0008407 276.8367  83.1897 14.95966185521742
PERSEUS-M2              
1 40037U 14033AD  24025.78377366  .00003147  00000+0  33551-3 0  9999
2 40037  97.9202 316.2486 0012349 312.9943  47.0238 14.89550770520978
PERSEUS-M1              
1 40039U 14033AF  24025.38162123  .00003277  00000+0  35160-3 0  9992
2 40039  97.9030 312.2977 0012214 313.7605  46.2600 14.89268930520276
POLYITAN-1              
1 40042U 14033AJ  24025.45088370  .00010454  00000+0  87159-3 0  9995
2 40042  98.0379 344.6270 0009926 270.8492  89.1593 14.98765370521285
TIGRISAT                
1 40043U 14033AK  24025.44529464  .00003422  00000+0  47033-3 0  9993
2 40043  97.6765 194.6423 0057511  52.2256 308.4145 14.77811557516220
AEROCUBE 6A             
1 40045U 14033AM  24025.47977845  .00006411  00000+0  80930-3 0  9992
2 40045  97.6580 204.9557 0053168  33.6687 326.7885 14.81233710516504
AEROCUBE 6B             
1 40046U 14033AN  24025.59767510  .00006599  00000+0  81753-3 0  9993
2 40046  97.6537 203.6603 0051738  29.4475 330.9636 14.82057544516561
UKUBE-1                 
1 40074U 14037F   24025.72721591  .00009694  00000+0  98090-3 0  9993
2 40074  98.3415 307.2086 0004159 158.2456 201.8938 14.91197531517389
BRITE-PL2 (HEWELIUSZ)   
1 40119U 14049B   24025.27760459  .00003829  00000+0  42371-3 0  9997
2 40119  97.8812 125.7755 0017392 116.1766 244.1241 14.87840485511176
GRIFEX                  
1 40379U 15003D   24025.49593622  .00293633  32508-4  12799-2 0  9993
2 40379  99.0801  27.0149 0030768 198.2567 161.7595 15.83967288497930
CP10 (EXOCUBE)          
1 40380U 15003E   24025.49407751  .00064934  00000+0  99838-3 0  9999
2 40380  99.1010  10.7017 0062583 258.2172 101.2050 15.51739715496949
EXACTVIEW 9             
1 40936U 15052G   24006.07845669  .00002815  00000+0  28083-3 0  9991
2 40936   6.0026  75.6655 0010627 288.6842  71.2132 14.79620840447345
AEROCUBE 5C             
1 40965U 15058B   24025.53226202  .00004898  00000+0  49148-3 0  9995
2 40965  64.7716  82.0988 0179822 353.4541   6.4216 14.81131784235755
AEROCUBE 7              
1 40966U 15058C   24025.50474831  .00006307  00000+0  61175-3 0  9997
2 40966  64.7699  77.1195 0176159 353.1541   6.7160 14.82530158235792
VELOX-II                
1 41171U 15077F   24022.50225751  .00053415  00000+0  11622-2 0  9992
2 41171  14.9895 117.0565 0005443  94.9392 265.1554 15.42377662448927
HORYU-4                 
1 41340U 16012D   24025.77310667  .00013448  00000+0  74985-3 0  9997
2 41340  31.0012 187.2109 0010788 322.8866  37.1026 15.12327062436391
E-ST@R-II               
1 41459U 16025D   24025.83235109  .00103743  00000+0  14596-2 0  9995
2 41459  98.1512 257.7913 0066720  33.6430 326.9029 15.53676884427158
RAVAN                   
1 41849U 16067B   24025.46074208  .00013354  00000+0  81448-3 0  9993
2 41849  98.0519 195.2108 0014508 153.9574 206.2387 15.10391101394262
CELTEE 1                
1 41850U 16067C   24025.66242207  .00008681  00000+0  62751-3 0  9996
2 41850  98.0847 188.1624 0000736   6.5458 353.5776 15.04311296393834
OPTICUBE 04             
1 41851U 16067D   24025.39415313  .00005750  00000+0  45011-3 0  9991
2 41851  98.0496 184.6191 0015939 174.4214 185.7190 15.01350997393654
AEROCUBE 8D             
1 41852U 16067E   24025.41555688  .00008221  00000+0  58190-3 0  9993
2 41852  98.0884 187.3346 0004579 223.6433 136.4431 15.05114396393753
AEROCUBE 8C             
1 41853U 16067F   24025.42284844  .00008496  00000+0  60195-3 0  9990
2 41853  98.0701 186.2913 0008829 155.5390 204.6256 15.05043305393740
PROMETHEUS 2-1          
1 41854U 16067G   24025.41890255  .00016920  00000+0  10019-2 0  9999
2 41854  98.0859 191.5715 0014049 184.5553 175.5550 15.11413192393989
PROMETHEUS 2-3          
1 41855U 16067H   24025.41416420  .00017085  00000+0  10128-2 0  9992
2 41855  98.0784 191.1964 0011716 194.7467 165.3421 15.11397471393989
DIDO-2                  
1 42000U 17008BE  24025.11609752  .00057857  00000+0  86440-3 0  9992
2 42000  97.1681  84.2262 0003528 317.0959  43.0020 15.54841463386227
